ORBCOMM FM05 [-]        
1 25117U 97084F   24066.57404424  .00002296  00000+0  73246-3 0  9995
2 25117  45.0150  86.7019 0002490 344.0503  16.0268 14.42276079373950
ORBCOMM FM06 [+]        
1 25118U 97084G   24066.49424187  .00002419  00000+0  76917-3 0  9990
2 25118  45.0143  87.2635 0001783 331.4914 183.1838 14.42277482373917
ORBCOMM FM07 [-]        
1 25119U 97084H   24066.45234458  .00002158  00000+0  69197-3 0  9999
2 25119  45.0137  87.9647 0003415 343.3645  16.7092 14.42204984373907
ORBCOMM FM03 [-]        
1 25158U 98007B   24066.48457249  .00001488  00000+0  59637-3 0  9999
2 25158 107.9793 256.6251 0047762 342.8302  17.1220 14.31903577357035
ORBCOMM FM04 [+]        
1 25159U 98007C   24066.48487195  .00001525  00000+0  60808-3 0  9997
2 25159 107.9777 259.5207 0043421 340.4878  19.4598 14.32159202357202
ORBCOMM FM18 [-]        
1 25414U 98046B   24066.56411945  .00002086  00000+0  76635-3 0  9991
2 25414  44.9924 229.1179 0004086 101.6865 258.4441 14.35553606336981
ORBCOMM FM19 [+]        
1 25415U 98046C   24066.20757435  .00002068  00000+0  76271-3 0  9996
2 25415  44.9932 232.1266 0002864  94.2251  75.5675 14.35388031336895
